[{"OBJECT_NAME":"OBJECT E","OBJECT_ID":"2024-092E","EPOCH":"2026-03-09T21:25:47.709120","MEAN_MOTION":15.32997986,"ECCENTRICITY":0.0008531,"INCLINATION":97.642,"RA_OF_ASC_NODE":198.2099,"ARG_OF_PERICENTER":142.2606,"MEAN_ANOMALY":217.9236,"EPHEMERIS_TYPE":0,"CLASSIFICATION_TYPE":"U","NORAD_CAT_ID":59777,"ELEMENT_SET_NO":999,"REV_AT_EPOCH":10051,"BSTAR":0.00078641119,"MEAN_MOTION_DOT":0.00025066,"MEAN_MOTION_DDOT":0},{"OBJECT_NAME":"STARLINK-35740","OBJECT_ID":"2025-244E","EPOCH":"2026-03-09T18:15:21.503520","MEAN_MOTION":15.30219277,"ECCENTRICITY":0.00013531,"INCLINATION":53.1592,"RA_OF_ASC_NODE":229.3552,"ARG_OF_PERICENTER":59.526,"MEAN_ANOMALY":300.5874,"EPHEMERIS_TYPE":0,"CLASSIFICATION_TYPE":"U","NORAD_CAT_ID":66210,"ELEMENT_SET_NO":999,"REV_AT_EPOCH":2167,"BSTAR":0.00033890228,"MEAN_MOTION_DOT":9.697e-5,"MEAN_MOTION_DDOT":0}]
